STARLINK-30268          
1 57531U 23115L   26067.88018543 -.00002762  00000+0 -93367-4 0  9991
2 57531  43.0036   6.5067 0001480 274.3297  85.7385 15.26721238142224
LIZZIESAT-2 (LS-2)      
1 62383U 24247G   26068.49140277  .00009388  00000+0  34517-3 0  9997
2 62383  44.9909 117.0823 0004092 327.5136  32.5495 15.28222796 67716
